[{"OBJECT_NAME":"PROTOMETHEE","OBJECT_ID":"2023-174BT","EPOCH":"2026-03-09T23:28:08.029344","MEAN_MOTION":15.30202663,"ECCENTRICITY":0.00088339,"INCLINATION":97.3826,"RA_OF_ASC_NODE":147.9552,"ARG_OF_PERICENTER":148.5993,"MEAN_ANOMALY":211.5776,"EPHEMERIS_TYPE":0,"CLASSIFICATION_TYPE":"U","NORAD_CAT_ID":58321,"ELEMENT_SET_NO":999,"REV_AT_EPOCH":12979,"BSTAR":0.00015715731,"MEAN_MOTION_DOT":4.52e-5,"MEAN_MOTION_DDOT":0},{"OBJECT_NAME":"STARLINK-35876","OBJECT_ID":"2025-303T","EPOCH":"2026-03-09T03:36:28.703808","MEAN_MOTION":15.27561943,"ECCENTRICITY":0.00017806,"INCLINATION":43.0004,"RA_OF_ASC_NODE":313.675,"ARG_OF_PERICENTER":280.7112,"MEAN_ANOMALY":79.3539,"EPHEMERIS_TYPE":0,"CLASSIFICATION_TYPE":"U","NORAD_CAT_ID":67180,"ELEMENT_SET_NO":999,"REV_AT_EPOCH":1265,"BSTAR":0.00090905271,"MEAN_MOTION_DOT":0.00024824,"MEAN_MOTION_DDOT":0}]
